location_id,city,state,pincode
1,Noida,Uttar Pradesh,201302
2,Gurgaon,Haryana,122004
3,Delhi,Delhi,110080
4,Pune,Maharashtra,411030
5,Chennai,Tamil Nadu,600068
6,Chennai,Tamil Nadu,600015
7,Delhi,Delhi,110063
8,Hyderabad,Telangana,500024
9,Delhi,Delhi,110097
10,Chennai,Tamil Nadu,600034
11,Bengaluru,Karnataka,560026
12,Hyderabad,Telangana,500051
13,Lucknow,Uttar Pradesh,226013
14,Noida,Uttar Pradesh,201301
15,Gurgaon,Haryana,122011
16,Thane,Maharashtra,401038
17,Gurgaon,Haryana,122003
18,Noida,Uttar Pradesh,201301
19,Bengaluru,Karnataka,560011
20,Delhi,Delhi,110014
21,Chennai,Tamil Nadu,600049
22,Bengaluru,Karnataka,560011
23,Noida,Uttar Pradesh,201305
24,Pune,Maharashtra,411012
25,Gurgaon,Haryana,122006
26,Hyderabad,Telangana,500050
27,Gurgaon,Haryana,122015
28,Hyderabad,Telangana,500098
29,Gurgaon,Haryana,122007
30,Lucknow,Uttar Pradesh,226014
31,Hyderabad,Telangana,500072
32,Delhi,Delhi,110090
33,Chennai,Tamil Nadu,600040
34,Delhi,Delhi,110095
35,Delhi,Delhi,110081
36,Chennai,Tamil Nadu,600011
37,Delhi,Delhi,110033
38,Thane,Maharashtra,401034
39,Hyderabad,Telangana,500063
40,Thane,Maharashtra,400830
41,Chennai,Tamil Nadu,600019
42,Noida,Uttar Pradesh,201301
43,Gurgaon,Haryana,122013
44,Pune,Maharashtra,411047
45,Delhi,Delhi,110076
46,Hyderabad,Telangana,500039
47,Chennai,Tamil Nadu,600005
48,Pune,Maharashtra,411045
49,Delhi,Delhi,110008
50,Bengaluru,Karnataka,560081
51,Delhi,Delhi,110034
52,Lucknow,Uttar Pradesh,226005
53,Lucknow,Uttar Pradesh,226008
54,Delhi,Delhi,110042
55,Bengaluru,Karnataka,560089
56,Mumbai,Maharashtra,400134
57,Gurgaon,Haryana,122003
58,Bengaluru,Karnataka,560043
59,Thane,Maharashtra,400631
60,Hyderabad,Telangana,500005
61,Chennai,Tamil Nadu,600022
62,Lucknow,Uttar Pradesh,226006
63,Chennai,Tamil Nadu,600074
64,Chennai,Tamil Nadu,600026
65,Bengaluru,Karnataka,560029
66,Lucknow,Uttar Pradesh,226005
67,Lucknow,Uttar Pradesh,226002
68,Lucknow,Uttar Pradesh,226005
69,Bengaluru,Karnataka,560062
70,Delhi,Delhi,110078
71,Hyderabad,Telangana,500001
72,Thane,Maharashtra,400622
73,Gurgaon,Haryana,122012
74,Pune,Maharashtra,411044
75,Chennai,Tamil Nadu,600061
76,Gurgaon,Haryana,122016
77,Hyderabad,Telangana,500082
78,Bengaluru,Karnataka,560031
79,Delhi,Delhi,110064
80,Noida,Uttar Pradesh,201301
81,Thane,Maharashtra,400752
82,Hyderabad,Telangana,500059
83,Thane,Maharashtra,400791
84,Mumbai,Maharashtra,400631
85,Chennai,Tamil Nadu,600041
86,Chennai,Tamil Nadu,600082
87,Delhi,Delhi,110031
88,Chennai,Tamil Nadu,600034
89,Delhi,Delhi,110088
90,Gurgaon,Haryana,122007
91,Thane,Maharashtra,400725
92,Mumbai,Maharashtra,401092
93,Delhi,Delhi,110019
94,Noida,Uttar Pradesh,201305
95,Chennai,Tamil Nadu,600047
96,Lucknow,Uttar Pradesh,226006
97,Gurgaon,Haryana,122006
98,Noida,Uttar Pradesh,201302
99,Chennai,Tamil Nadu,600062
100,Mumbai,Maharashtra,400015
101,Bengaluru,Karnataka,560082
102,Gurgaon,Haryana,122005
103,Gurgaon,Haryana,122005
104,Chennai,Tamil Nadu,600021
105,Noida,Uttar Pradesh,201303
106,Delhi,Delhi,110022
107,Hyderabad,Telangana,500086
108,Lucknow,Uttar Pradesh,226011
109,Gurgaon,Haryana,122010
110,Mumbai,Maharashtra,400561
111,Gurgaon,Haryana,122013
112,Noida,Uttar Pradesh,201308
113,Delhi,Delhi,110017
114,Chennai,Tamil Nadu,600034
115,Delhi,Delhi,110040
116,Bengaluru,Karnataka,560003
117,Pune,Maharashtra,411020
118,Gurgaon,Haryana,122012
119,Bengaluru,Karnataka,560076
120,Chennai,Tamil Nadu,600074
121,Bengaluru,Karnataka,560089
122,Lucknow,Uttar Pradesh,226013
123,Delhi,Delhi,110016
124,Chennai,Tamil Nadu,600023
125,Thane,Maharashtra,401023
126,Noida,Uttar Pradesh,201308
127,Mumbai,Maharashtra,400715
128,Delhi,Delhi,110077
129,Delhi,Delhi,110079
130,Hyderabad,Telangana,500082
131,Bengaluru,Karnataka,560016
132,Hyderabad,Telangana,500049
133,Gurgaon,Haryana,122018
134,Noida,Uttar Pradesh,201307
135,Hyderabad,Telangana,500035
136,Lucknow,Uttar Pradesh,226010
137,Pune,Maharashtra,411047
138,Delhi,Delhi,110032
139,Pune,Maharashtra,411034
140,Gurgaon,Haryana,122015
141,Hyderabad,Telangana,500009
142,Lucknow,Uttar Pradesh,226009
143,Gurgaon,Haryana,122001
144,Delhi,Delhi,110031
145,Lucknow,Uttar Pradesh,226012
146,Delhi,Delhi,110084
147,Bengaluru,Karnataka,560019
148,Delhi,Delhi,110042
149,Chennai,Tamil Nadu,600075
150,Bengaluru,Karnataka,560070
151,Delhi,Delhi,110020
152,Gurgaon,Haryana,122017
153,Gurgaon,Haryana,122017
154,Chennai,Tamil Nadu,600052
155,Gurgaon,Haryana,122006
156,Thane,Maharashtra,400947
157,Bengaluru,Karnataka,560041
158,Delhi,Delhi,110032
159,Bengaluru,Karnataka,560097
160,Delhi,Delhi,110063
161,Hyderabad,Telangana,500023
162,Pune,Maharashtra,411001
163,Lucknow,Uttar Pradesh,226001
164,Chennai,Tamil Nadu,600012
165,Gurgaon,Haryana,122011
166,Thane,Maharashtra,400635
167,Noida,Uttar Pradesh,201301
168,Bengaluru,Karnataka,560040
169,Lucknow,Uttar Pradesh,226016
170,Bengaluru,Karnataka,560061
171,Delhi,Delhi,110036
172,Bengaluru,Karnataka,560029
173,Mumbai,Maharashtra,400621
174,Bengaluru,Karnataka,560012
175,Gurgaon,Haryana,122008
176,Chennai,Tamil Nadu,600081
177,Pune,Maharashtra,411033
178,Hyderabad,Telangana,500009
179,Delhi,Delhi,110088
180,Noida,Uttar Pradesh,201303
181,Chennai,Tamil Nadu,600033
182,Delhi,Delhi,110082
183,Gurgaon,Haryana,122004
184,Noida,Uttar Pradesh,201309
185,Delhi,Delhi,110046
186,Gurgaon,Haryana,122007
187,Hyderabad,Telangana,500018
188,Mumbai,Maharashtra,400302
189,Pune,Maharashtra,411023
190,Mumbai,Maharashtra,401085
191,Lucknow,Uttar Pradesh,226001
192,Gurgaon,Haryana,122009
193,Bengaluru,Karnataka,560034
194,Delhi,Delhi,110034
195,Chennai,Tamil Nadu,600032
196,Hyderabad,Telangana,500039
197,Delhi,Delhi,110064
198,Thane,Maharashtra,400821
199,Gurgaon,Haryana,122017
200,Delhi,Delhi,110037
201,Noida,Uttar Pradesh,201304
202,Chennai,Tamil Nadu,600031
203,Mumbai,Maharashtra,400253
204,Bengaluru,Karnataka,560019
205,Delhi,Delhi,110096
206,Chennai,Tamil Nadu,600059
207,Chennai,Tamil Nadu,600044
208,Mumbai,Maharashtra,400658
209,Delhi,Delhi,110083
210,Gurgaon,Haryana,122003
211,Delhi,Delhi,110052
212,Delhi,Delhi,110040
213,Chennai,Tamil Nadu,600100
214,Bengaluru,Karnataka,560067
215,Bengaluru,Karnataka,560086
216,Delhi,Delhi,110097
217,Chennai,Tamil Nadu,600045
218,Bengaluru,Karnataka,560032
219,Hyderabad,Telangana,500062
220,Chennai,Tamil Nadu,600017
221,Delhi,Delhi,110035
222,Pune,Maharashtra,411009
223,Hyderabad,Telangana,500069
224,Delhi,Delhi,110095
225,Gurgaon,Haryana,122006
226,Hyderabad,Telangana,500053
227,Bengaluru,Karnataka,560063
228,Thane,Maharashtra,400826
229,Pune,Maharashtra,411016
230,Gurgaon,Haryana,122003
231,Lucknow,Uttar Pradesh,226009
232,Bengaluru,Karnataka,560001
233,Chennai,Tamil Nadu,600051
234,Bengaluru,Karnataka,560075
235,Gurgaon,Haryana,122002
236,Gurgaon,Haryana,122016
237,Lucknow,Uttar Pradesh,226003
238,Mumbai,Maharashtra,400942
239,Gurgaon,Haryana,122010
240,Thane,Maharashtra,400957
241,Chennai,Tamil Nadu,600099
242,Chennai,Tamil Nadu,600028
243,Pune,Maharashtra,411018
244,Bengaluru,Karnataka,560048
245,Hyderabad,Telangana,500001
246,Delhi,Delhi,110058
247,Hyderabad,Telangana,500098
248,Hyderabad,Telangana,500085
249,Lucknow,Uttar Pradesh,226005
250,Hyderabad,Telangana,500057
251,Gurgaon,Haryana,122013
252,Hyderabad,Telangana,500063
253,Gurgaon,Haryana,122004
254,Chennai,Tamil Nadu,600098
255,Delhi,Delhi,110061
256,Chennai,Tamil Nadu,600071
257,Delhi,Delhi,110007
258,Chennai,Tamil Nadu,600056
259,Chennai,Tamil Nadu,600095
260,Chennai,Tamil Nadu,600060
261,Mumbai,Maharashtra,400996
262,Bengaluru,Karnataka,560038
263,Pune,Maharashtra,411035
264,Delhi,Delhi,110061
265,Bengaluru,Karnataka,560086
266,Delhi,Delhi,110008
267,Delhi,Delhi,110007
268,Delhi,Delhi,110069
269,Thane,Maharashtra,400854
270,Delhi,Delhi,110024
271,Chennai,Tamil Nadu,600008
272,Delhi,Delhi,110051
273,Thane,Maharashtra,400906
274,Delhi,Delhi,110062
275,Bengaluru,Karnataka,560016
276,Noida,Uttar Pradesh,201305
277,Bengaluru,Karnataka,560036
278,Mumbai,Maharashtra,400486
279,Thane,Maharashtra,400999
280,Bengaluru,Karnataka,560027
281,Gurgaon,Haryana,122006
282,Lucknow,Uttar Pradesh,226004
283,Bengaluru,Karnataka,560046
284,Bengaluru,Karnataka,560062
285,Hyderabad,Telangana,500041
286,Noida,Uttar Pradesh,201301
287,Chennai,Tamil Nadu,600070
288,Chennai,Tamil Nadu,600032
289,Gurgaon,Haryana,122009
290,Gurgaon,Haryana,122007
291,Hyderabad,Telangana,500093
292,Bengaluru,Karnataka,560002
293,Noida,Uttar Pradesh,201308
294,Thane,Maharashtra,401021
295,Hyderabad,Telangana,500091
296,Gurgaon,Haryana,122012
297,Delhi,Delhi,110021
298,Hyderabad,Telangana,500027
299,Chennai,Tamil Nadu,600080
300,Mumbai,Maharashtra,400945
301,Hyderabad,Telangana,500055
302,Lucknow,Uttar Pradesh,226005
303,Bengaluru,Karnataka,560007
304,Noida,Uttar Pradesh,201302
305,Hyderabad,Telangana,500028
306,Mumbai,Maharashtra,400252
307,Mumbai,Maharashtra,400776
308,Hyderabad,Telangana,500028
309,Hyderabad,Telangana,500041
310,Bengaluru,Karnataka,560058
311,Bengaluru,Karnataka,560044
312,Delhi,Delhi,110007
313,Hyderabad,Telangana,500017
314,Hyderabad,Telangana,500066
315,Delhi,Delhi,110058
316,Pune,Maharashtra,411025
317,Mumbai,Maharashtra,400351
318,Pune,Maharashtra,411008
319,Hyderabad,Telangana,500054
320,Gurgaon,Haryana,122008
321,Chennai,Tamil Nadu,600053
322,Delhi,Delhi,110099
323,Hyderabad,Telangana,500033
324,Bengaluru,Karnataka,560024
325,Hyderabad,Telangana,500043
326,Thane,Maharashtra,401020
327,Hyderabad,Telangana,500013
328,Chennai,Tamil Nadu,600079
329,Hyderabad,Telangana,500004
330,Thane,Maharashtra,400693
331,Lucknow,Uttar Pradesh,226001
332,Gurgaon,Haryana,122017
333,Chennai,Tamil Nadu,600069
334,Chennai,Tamil Nadu,600099
335,Hyderabad,Telangana,500073
336,Thane,Maharashtra,400843
337,Hyderabad,Telangana,500052
338,Delhi,Delhi,110044
339,Gurgaon,Haryana,122011
340,Noida,Uttar Pradesh,201302
341,Delhi,Delhi,110046
342,Bengaluru,Karnataka,560084
343,Delhi,Delhi,110033
344,Bengaluru,Karnataka,560089
345,Lucknow,Uttar Pradesh,226002
346,Chennai,Tamil Nadu,600088
347,Hyderabad,Telangana,500031
348,Chennai,Tamil Nadu,600009
349,Mumbai,Maharashtra,400523
350,Lucknow,Uttar Pradesh,226002
351,Chennai,Tamil Nadu,600097
352,Chennai,Tamil Nadu,600010
353,Chennai,Tamil Nadu,600004
354,Delhi,Delhi,110075
355,Lucknow,Uttar Pradesh,226007
356,Mumbai,Maharashtra,400789
357,Gurgaon,Haryana,122008
358,Lucknow,Uttar Pradesh,226006
359,Thane,Maharashtra,400704
360,Mumbai,Maharashtra,400704
361,Pune,Maharashtra,411013
362,Gurgaon,Haryana,122005
363,Gurgaon,Haryana,122008
364,Hyderabad,Telangana,500028
365,Delhi,Delhi,110024
366,Bengaluru,Karnataka,560040
367,Bengaluru,Karnataka,560067
368,Mumbai,Maharashtra,400271
369,Chennai,Tamil Nadu,600020
370,Delhi,Delhi,110015
371,Bengaluru,Karnataka,560060
372,Mumbai,Maharashtra,400400
373,Gurgaon,Haryana,122006
374,Bengaluru,Karnataka,560069
375,Bengaluru,Karnataka,560086
376,Delhi,Delhi,110094
377,Delhi,Delhi,110031
378,Chennai,Tamil Nadu,600024
379,Bengaluru,Karnataka,560008
380,Delhi,Delhi,110004
381,Chennai,Tamil Nadu,600076
382,Mumbai,Maharashtra,400134
383,Delhi,Delhi,110067
384,Gurgaon,Haryana,122013
385,Noida,Uttar Pradesh,201305
386,Hyderabad,Telangana,500017
387,Delhi,Delhi,110013
388,Chennai,Tamil Nadu,600062
389,Chennai,Tamil Nadu,600026
390,Noida,Uttar Pradesh,201306
391,Bengaluru,Karnataka,560051
392,Hyderabad,Telangana,500093
393,Hyderabad,Telangana,500016
394,Delhi,Delhi,110095
395,Chennai,Tamil Nadu,600067
396,Thane,Maharashtra,400875
397,Chennai,Tamil Nadu,600002
398,Delhi,Delhi,110020
399,Bengaluru,Karnataka,560031
400,Chennai,Tamil Nadu,600027
401,Gurgaon,Haryana,122010
402,Noida,Uttar Pradesh,201304
403,Delhi,Delhi,110006
404,Hyderabad,Telangana,500046
405,Lucknow,Uttar Pradesh,226014
406,Bengaluru,Karnataka,560018
407,Bengaluru,Karnataka,560018
408,Hyderabad,Telangana,500093
409,Hyderabad,Telangana,500056
410,Chennai,Tamil Nadu,600056
411,Bengaluru,Karnataka,560006
412,Bengaluru,Karnataka,560039
413,Chennai,Tamil Nadu,600039
414,Lucknow,Uttar Pradesh,226004
415,Noida,Uttar Pradesh,201302
416,Chennai,Tamil Nadu,600043
417,Hyderabad,Telangana,500080
418,Hyderabad,Telangana,500001
419,Chennai,Tamil Nadu,600055
420,Hyderabad,Telangana,500014
421,Lucknow,Uttar Pradesh,226007
422,Chennai,Tamil Nadu,600009
423,Thane,Maharashtra,400929
424,Delhi,Delhi,110090
425,Bengaluru,Karnataka,560011
426,Chennai,Tamil Nadu,600062
427,Hyderabad,Telangana,500086
428,Hyderabad,Telangana,500037
429,Bengaluru,Karnataka,560043
430,Chennai,Tamil Nadu,600093
431,Bengaluru,Karnataka,560017
432,Delhi,Delhi,110007
433,Noida,Uttar Pradesh,201301
434,Lucknow,Uttar Pradesh,226009
435,Hyderabad,Telangana,500019
436,Gurgaon,Haryana,122008
437,Bengaluru,Karnataka,560016
438,Delhi,Delhi,110004
439,Hyderabad,Telangana,500006
440,Gurgaon,Haryana,122001
441,Lucknow,Uttar Pradesh,226001
442,Chennai,Tamil Nadu,600081
443,Gurgaon,Haryana,122005
444,Gurgaon,Haryana,122017
445,Noida,Uttar Pradesh,201303
446,Pune,Maharashtra,411046
447,Gurgaon,Haryana,122009
448,Delhi,Delhi,110038
449,Chennai,Tamil Nadu,600036
450,Chennai,Tamil Nadu,600091
451,Hyderabad,Telangana,500078
452,Chennai,Tamil Nadu,600015
453,Bengaluru,Karnataka,560044
454,Gurgaon,Haryana,122015
455,Delhi,Delhi,110064
456,Bengaluru,Karnataka,560029
457,Hyderabad,Telangana,500059
458,Delhi,Delhi,110029
459,Delhi,Delhi,110055
460,Hyderabad,Telangana,500072
461,Lucknow,Uttar Pradesh,226015
462,Gurgaon,Haryana,122004
463,Delhi,Delhi,110038
464,Bengaluru,Karnataka,560039
465,Pune,Maharashtra,411044
466,Lucknow,Uttar Pradesh,226006
467,Delhi,Delhi,110024
468,Thane,Maharashtra,401014
469,Bengaluru,Karnataka,560077
470,Chennai,Tamil Nadu,600080
471,Chennai,Tamil Nadu,600016
472,Bengaluru,Karnataka,560036
473,Lucknow,Uttar Pradesh,226003
474,Noida,Uttar Pradesh,201306
475,Chennai,Tamil Nadu,600097
476,Gurgaon,Haryana,122016
477,Noida,Uttar Pradesh,201306
478,Hyderabad,Telangana,500096
479,Thane,Maharashtra,400688
480,Gurgaon,Haryana,122017
481,Gurgaon,Haryana,122016
482,Hyderabad,Telangana,500092
483,Gurgaon,Haryana,122016
484,Chennai,Tamil Nadu,600087
485,Chennai,Tamil Nadu,600031
486,Delhi,Delhi,110093
487,Lucknow,Uttar Pradesh,226006
488,Gurgaon,Haryana,122015
489,Hyderabad,Telangana,500015
490,Gurgaon,Haryana,122008
491,Bengaluru,Karnataka,560080
492,Noida,Uttar Pradesh,201306
493,Delhi,Delhi,110041
494,Hyderabad,Telangana,500021
495,Delhi,Delhi,110027
496,Gurgaon,Haryana,122012
497,Gurgaon,Haryana,122016
498,Bengaluru,Karnataka,560099
499,Lucknow,Uttar Pradesh,226004
500,Noida,Uttar Pradesh,201306
501,Bengaluru,Karnataka,560020
502,Lucknow,Uttar Pradesh,226005
503,Gurgaon,Haryana,122004
504,Thane,Maharashtra,400712
505,Pune,Maharashtra,411023
506,Delhi,Delhi,110059
507,Gurgaon,Haryana,122016
508,Gurgaon,Haryana,122004
509,Hyderabad,Telangana,500080
510,Pune,Maharashtra,411035
511,Chennai,Tamil Nadu,600088
512,Pune,Maharashtra,411030
513,Delhi,Delhi,110087
514,Mumbai,Maharashtra,401103
515,Noida,Uttar Pradesh,201307
516,Delhi,Delhi,110021
517,Hyderabad,Telangana,500081
518,Delhi,Delhi,110064
519,Chennai,Tamil Nadu,600053
520,Mumbai,Maharashtra,400554
521,Lucknow,Uttar Pradesh,226009
522,Chennai,Tamil Nadu,600079
523,Chennai,Tamil Nadu,600089
524,Bengaluru,Karnataka,560028
525,Delhi,Delhi,110092
526,Delhi,Delhi,110058
527,Bengaluru,Karnataka,560056
528,Hyderabad,Telangana,500027
529,Pune,Maharashtra,411012
530,Bengaluru,Karnataka,560046
531,Delhi,Delhi,110073
532,Chennai,Tamil Nadu,600030
533,Bengaluru,Karnataka,560092
534,Gurgaon,Haryana,122002
535,Chennai,Tamil Nadu,600059
536,Bengaluru,Karnataka,560085
537,Delhi,Delhi,110036
538,Chennai,Tamil Nadu,600026
539,Bengaluru,Karnataka,560067
540,Bengaluru,Karnataka,560023
541,Bengaluru,Karnataka,560076
542,Pune,Maharashtra,411016
543,Chennai,Tamil Nadu,600068
544,Delhi,Delhi,110029
545,Mumbai,Maharashtra,401078
546,Mumbai,Maharashtra,400036
547,Gurgaon,Haryana,122011
548,Hyderabad,Telangana,500089
549,Delhi,Delhi,110036
550,Bengaluru,Karnataka,560079
551,Mumbai,Maharashtra,400736
552,Chennai,Tamil Nadu,600043
553,Pune,Maharashtra,411038
554,Lucknow,Uttar Pradesh,226004
555,Delhi,Delhi,110005
556,Gurgaon,Haryana,122004
557,Hyderabad,Telangana,500016
558,Delhi,Delhi,110034
559,Delhi,Delhi,110053
560,Hyderabad,Telangana,500073
561,Hyderabad,Telangana,500055
562,Gurgaon,Haryana,122017
563,Bengaluru,Karnataka,560015
564,Hyderabad,Telangana,500057
565,Gurgaon,Haryana,122017
566,Lucknow,Uttar Pradesh,226006
567,Hyderabad,Telangana,500076
568,Chennai,Tamil Nadu,600036
569,Bengaluru,Karnataka,560039
570,Delhi,Delhi,110019
571,Noida,Uttar Pradesh,201304
572,Chennai,Tamil Nadu,600068
573,Hyderabad,Telangana,500019
574,Lucknow,Uttar Pradesh,226006
575,Hyderabad,Telangana,500022
576,Hyderabad,Telangana,500050
577,Bengaluru,Karnataka,560005
578,Pune,Maharashtra,411009
579,Bengaluru,Karnataka,560048
580,Hyderabad,Telangana,500090
581,Bengaluru,Karnataka,560048
582,Thane,Maharashtra,400724
583,Bengaluru,Karnataka,560085
584,Noida,Uttar Pradesh,201309
585,Chennai,Tamil Nadu,600032
586,Hyderabad,Telangana,500062
587,Chennai,Tamil Nadu,600097
588,Thane,Maharashtra,400936
589,Chennai,Tamil Nadu,600086
590,Lucknow,Uttar Pradesh,226011
591,Pune,Maharashtra,411002
592,Hyderabad,Telangana,500024
593,Hyderabad,Telangana,500086
594,Thane,Maharashtra,400787
595,Hyderabad,Telangana,500031
596,Delhi,Delhi,110068
597,Chennai,Tamil Nadu,600042
598,Bengaluru,Karnataka,560032
599,Lucknow,Uttar Pradesh,226005
600,Delhi,Delhi,110083
601,Noida,Uttar Pradesh,201308
602,Delhi,Delhi,110023
603,Mumbai,Maharashtra,400297
604,Hyderabad,Telangana,500062
605,Lucknow,Uttar Pradesh,226011
606,Pune,Maharashtra,411044
607,Chennai,Tamil Nadu,600003
608,Noida,Uttar Pradesh,201309
609,Bengaluru,Karnataka,560063
610,Gurgaon,Haryana,122018
611,Mumbai,Maharashtra,400615
612,Thane,Maharashtra,400972
613,Delhi,Delhi,110038
614,Hyderabad,Telangana,500004
615,Pune,Maharashtra,411009
616,Chennai,Tamil Nadu,600017
617,Bengaluru,Karnataka,560067
618,Delhi,Delhi,110030
619,Gurgaon,Haryana,122014
620,Thane,Maharashtra,401064
621,Noida,Uttar Pradesh,201309
622,Thane,Maharashtra,400672
623,Gurgaon,Haryana,122018
624,Delhi,Delhi,110061
625,Gurgaon,Haryana,122007
626,Bengaluru,Karnataka,560033
627,Chennai,Tamil Nadu,600033
628,Delhi,Delhi,110001
629,Gurgaon,Haryana,122009
630,Noida,Uttar Pradesh,201305
631,Bengaluru,Karnataka,560053
632,Hyderabad,Telangana,500092
633,Gurgaon,Haryana,122009
634,Noida,Uttar Pradesh,201301
635,Pune,Maharashtra,411038
636,Mumbai,Maharashtra,400531
637,Hyderabad,Telangana,500006
638,Gurgaon,Haryana,122001
639,Chennai,Tamil Nadu,600013
640,Delhi,Delhi,110049
641,Chennai,Tamil Nadu,600043
642,Delhi,Delhi,110097
643,Thane,Maharashtra,400614
644,Pune,Maharashtra,411015
645,Gurgaon,Haryana,122009
646,Delhi,Delhi,110042
647,Lucknow,Uttar Pradesh,226014
648,Chennai,Tamil Nadu,600052
649,Gurgaon,Haryana,122017
650,Hyderabad,Telangana,500079
651,Thane,Maharashtra,400922
652,Delhi,Delhi,110065
653,Gurgaon,Haryana,122015
654,Bengaluru,Karnataka,560075
655,Chennai,Tamil Nadu,600008
656,Hyderabad,Telangana,500061
657,Delhi,Delhi,110096
658,Noida,Uttar Pradesh,201306
659,Hyderabad,Telangana,500097
660,Chennai,Tamil Nadu,600046
661,Delhi,Delhi,110009
662,Hyderabad,Telangana,500062
663,Delhi,Delhi,110043
664,Bengaluru,Karnataka,560065
665,Gurgaon,Haryana,122001
666,Hyderabad,Telangana,500021
667,Mumbai,Maharashtra,400241
668,Bengaluru,Karnataka,560048
669,Hyderabad,Telangana,500036
670,Delhi,Delhi,110030
671,Chennai,Tamil Nadu,600066
672,Thane,Maharashtra,400878
673,Pune,Maharashtra,411042
674,Delhi,Delhi,110047
675,Bengaluru,Karnataka,560040
676,Thane,Maharashtra,400632
677,Hyderabad,Telangana,500031
678,Gurgaon,Haryana,122006
679,Delhi,Delhi,110050
680,Hyderabad,Telangana,500016
681,Bengaluru,Karnataka,560086
682,Hyderabad,Telangana,500003
683,Delhi,Delhi,110049
684,Thane,Maharashtra,400911
685,Chennai,Tamil Nadu,600090
686,Bengaluru,Karnataka,560026
687,Bengaluru,Karnataka,560080
688,Gurgaon,Haryana,122010
689,Thane,Maharashtra,400999
690,Noida,Uttar Pradesh,201308
691,Chennai,Tamil Nadu,600067
692,Bengaluru,Karnataka,560015
693,Hyderabad,Telangana,500005
694,Chennai,Tamil Nadu,600069
695,Chennai,Tamil Nadu,600020
696,Noida,Uttar Pradesh,201307
697,Lucknow,Uttar Pradesh,226005
698,Noida,Uttar Pradesh,201308
699,Hyderabad,Telangana,500084
700,Noida,Uttar Pradesh,201307
701,Thane,Maharashtra,400800
702,Pune,Maharashtra,411009
703,Delhi,Delhi,110037
704,Chennai,Tamil Nadu,600052
705,Mumbai,Maharashtra,400949
706,Delhi,Delhi,110058
707,Hyderabad,Telangana,500009
708,Delhi,Delhi,110032
709,Lucknow,Uttar Pradesh,226007
710,Delhi,Delhi,110075
711,Hyderabad,Telangana,500090
712,Chennai,Tamil Nadu,600093
713,Lucknow,Uttar Pradesh,226014
714,Pune,Maharashtra,411048
715,Mumbai,Maharashtra,400841
716,Chennai,Tamil Nadu,600030
717,Pune,Maharashtra,411004
718,Noida,Uttar Pradesh,201308
719,Gurgaon,Haryana,122016
720,Mumbai,Maharashtra,400581
721,Noida,Uttar Pradesh,201301
722,Hyderabad,Telangana,500073
723,Mumbai,Maharashtra,400053
724,Delhi,Delhi,110035
725,Mumbai,Maharashtra,400885
726,Chennai,Tamil Nadu,600064
727,Gurgaon,Haryana,122008
728,Chennai,Tamil Nadu,600048
729,Noida,Uttar Pradesh,201307
730,Delhi,Delhi,110023
731,Hyderabad,Telangana,500053
732,Delhi,Delhi,110060
733,Noida,Uttar Pradesh,201301
734,Delhi,Delhi,110042
735,Lucknow,Uttar Pradesh,226007
736,Hyderabad,Telangana,500069
737,Hyderabad,Telangana,500041
738,Noida,Uttar Pradesh,201305
739,Thane,Maharashtra,400623
740,Gurgaon,Haryana,122012
741,Bengaluru,Karnataka,560012
742,Delhi,Delhi,110065
743,Thane,Maharashtra,400761
744,Bengaluru,Karnataka,560015
745,Mumbai,Maharashtra,400682
746,Bengaluru,Karnataka,560088
747,Bengaluru,Karnataka,560028
748,Delhi,Delhi,110032
749,Hyderabad,Telangana,500057
750,Lucknow,Uttar Pradesh,226001
751,Bengaluru,Karnataka,560061
752,Mumbai,Maharashtra,400172
753,Pune,Maharashtra,411048
754,Lucknow,Uttar Pradesh,226013
755,Bengaluru,Karnataka,560092
756,Pune,Maharashtra,411026
757,Chennai,Tamil Nadu,600082
758,Hyderabad,Telangana,500034
759,Bengaluru,Karnataka,560084
760,Chennai,Tamil Nadu,600015
761,Hyderabad,Telangana,500013
762,Hyderabad,Telangana,500038
763,Chennai,Tamil Nadu,600063
764,Delhi,Delhi,110069
765,Chennai,Tamil Nadu,600026
766,Gurgaon,Haryana,122006
767,Noida,Uttar Pradesh,201304
768,Bengaluru,Karnataka,560066
769,Thane,Maharashtra,400998
770,Hyderabad,Telangana,500027
771,Gurgaon,Haryana,122016
772,Bengaluru,Karnataka,560068
773,Hyderabad,Telangana,500047
774,Noida,Uttar Pradesh,201301
775,Delhi,Delhi,110073
776,Delhi,Delhi,110051
777,Bengaluru,Karnataka,560070
778,Lucknow,Uttar Pradesh,226015
779,Chennai,Tamil Nadu,600092
780,Bengaluru,Karnataka,560019
781,Lucknow,Uttar Pradesh,226002
782,Chennai,Tamil Nadu,600010
783,Gurgaon,Haryana,122013
784,Mumbai,Maharashtra,400287
785,Delhi,Delhi,110037
786,Gurgaon,Haryana,122002
787,Gurgaon,Haryana,122014
788,Mumbai,Maharashtra,401083
789,Gurgaon,Haryana,122008
790,Pune,Maharashtra,411022
791,Chennai,Tamil Nadu,600050
792,Delhi,Delhi,110059
793,Chennai,Tamil Nadu,600045
794,Bengaluru,Karnataka,560013
795,Delhi,Delhi,110041
796,Hyderabad,Telangana,500092
797,Hyderabad,Telangana,500044
798,Chennai,Tamil Nadu,600085
799,Chennai,Tamil Nadu,600035
800,Mumbai,Maharashtra,400854
801,Mumbai,Maharashtra,400582
802,Gurgaon,Haryana,122013
803,Chennai,Tamil Nadu,600085
804,Lucknow,Uttar Pradesh,226016
805,Bengaluru,Karnataka,560001
806,Mumbai,Maharashtra,400655
807,Chennai,Tamil Nadu,600014
808,Chennai,Tamil Nadu,600021
809,Delhi,Delhi,110031
810,Hyderabad,Telangana,500060
811,Chennai,Tamil Nadu,600012
812,Mumbai,Maharashtra,400673
813,Delhi,Delhi,110010
814,Delhi,Delhi,110070
815,Lucknow,Uttar Pradesh,226007
816,Bengaluru,Karnataka,560082
817,Delhi,Delhi,110003
818,Noida,Uttar Pradesh,201306
819,Noida,Uttar Pradesh,201305
820,Lucknow,Uttar Pradesh,226010
821,Noida,Uttar Pradesh,201307
822,Lucknow,Uttar Pradesh,226015
823,Bengaluru,Karnataka,560065
824,Bengaluru,Karnataka,560035
825,Pune,Maharashtra,411035
826,Gurgaon,Haryana,122008
827,Lucknow,Uttar Pradesh,226007
828,Delhi,Delhi,110002
829,Gurgaon,Haryana,122006
830,Chennai,Tamil Nadu,600067
831,Chennai,Tamil Nadu,600088
832,Chennai,Tamil Nadu,600038
833,Noida,Uttar Pradesh,201305
834,Bengaluru,Karnataka,560046
835,Hyderabad,Telangana,500059
836,Hyderabad,Telangana,500062
837,Hyderabad,Telangana,500004
838,Gurgaon,Haryana,122003
839,Hyderabad,Telangana,500076
840,Delhi,Delhi,110034
841,Delhi,Delhi,110052
842,Delhi,Delhi,110076
843,Hyderabad,Telangana,500069
844,Gurgaon,Haryana,122011
845,Hyderabad,Telangana,500048
846,Chennai,Tamil Nadu,600042
847,Gurgaon,Haryana,122011
848,Hyderabad,Telangana,500026
849,Chennai,Tamil Nadu,600050
850,Gurgaon,Haryana,122018
851,Mumbai,Maharashtra,400640
852,Gurgaon,Haryana,122009
853,Noida,Uttar Pradesh,201302
854,Delhi,Delhi,110041
855,Thane,Maharashtra,401085
856,Gurgaon,Haryana,122002
857,Mumbai,Maharashtra,400799
858,Gurgaon,Haryana,122007
859,Hyderabad,Telangana,500071
860,Noida,Uttar Pradesh,201307
861,Hyderabad,Telangana,500080
862,Thane,Maharashtra,400877
863,Noida,Uttar Pradesh,201309
864,Noida,Uttar Pradesh,201308
865,Gurgaon,Haryana,122005
866,Chennai,Tamil Nadu,600077
867,Pune,Maharashtra,411041
868,Noida,Uttar Pradesh,201303
869,Hyderabad,Telangana,500051
870,Delhi,Delhi,110007
871,Mumbai,Maharashtra,400895
872,Delhi,Delhi,110030
873,Mumbai,Maharashtra,400570
874,Gurgaon,Haryana,122001
875,Thane,Maharashtra,400916
876,Pune,Maharashtra,411016
877,Delhi,Delhi,110079
878,Mumbai,Maharashtra,400435
879,Delhi,Delhi,110022
880,Delhi,Delhi,110045
881,Chennai,Tamil Nadu,600019
882,Delhi,Delhi,110067
883,Delhi,Delhi,110089
884,Noida,Uttar Pradesh,201303
885,Chennai,Tamil Nadu,600011
886,Gurgaon,Haryana,122004
887,Delhi,Delhi,110044
888,Lucknow,Uttar Pradesh,226006
889,Pune,Maharashtra,411048
890,Hyderabad,Telangana,500036
891,Bengaluru,Karnataka,560004
892,Noida,Uttar Pradesh,201304
893,Gurgaon,Haryana,122018
894,Pune,Maharashtra,411038
895,Gurgaon,Haryana,122012
896,Chennai,Tamil Nadu,600032
897,Delhi,Delhi,110049
898,Bengaluru,Karnataka,560075
899,Hyderabad,Telangana,500005
900,Gurgaon,Haryana,122011
901,Gurgaon,Haryana,122013
902,Delhi,Delhi,110073
903,Hyderabad,Telangana,500038
904,Delhi,Delhi,110079
905,Lucknow,Uttar Pradesh,226014
906,Hyderabad,Telangana,500015
907,Noida,Uttar Pradesh,201302
908,Bengaluru,Karnataka,560050
909,Noida,Uttar Pradesh,201304
910,Bengaluru,Karnataka,560073
911,Hyderabad,Telangana,500093
912,Noida,Uttar Pradesh,201307
913,Noida,Uttar Pradesh,201309
914,Bengaluru,Karnataka,560024
915,Lucknow,Uttar Pradesh,226011
916,Chennai,Tamil Nadu,600059
917,Pune,Maharashtra,411030
918,Lucknow,Uttar Pradesh,226001
919,Noida,Uttar Pradesh,201304
920,Delhi,Delhi,110062
921,Gurgaon,Haryana,122011
922,Delhi,Delhi,110010
923,Hyderabad,Telangana,500062
924,Chennai,Tamil Nadu,600003
925,Chennai,Tamil Nadu,600006
926,Chennai,Tamil Nadu,600054
927,Gurgaon,Haryana,122006
928,Delhi,Delhi,110048
929,Chennai,Tamil Nadu,600077
930,Bengaluru,Karnataka,560059
931,Hyderabad,Telangana,500026
932,Gurgaon,Haryana,122003
933,Chennai,Tamil Nadu,600050
934,Chennai,Tamil Nadu,600039
935,Bengaluru,Karnataka,560041
936,Mumbai,Maharashtra,400753
937,Hyderabad,Telangana,500052
938,Gurgaon,Haryana,122003
939,Chennai,Tamil Nadu,600067
940,Chennai,Tamil Nadu,600027
941,Bengaluru,Karnataka,560073
942,Thane,Maharashtra,400960
943,Delhi,Delhi,110087
944,Bengaluru,Karnataka,560096
945,Lucknow,Uttar Pradesh,226003
946,Chennai,Tamil Nadu,600083
947,Delhi,Delhi,110050
948,Noida,Uttar Pradesh,201301
949,Gurgaon,Haryana,122015
950,Hyderabad,Telangana,500005
951,Delhi,Delhi,110068
952,Chennai,Tamil Nadu,600093
953,Chennai,Tamil Nadu,600059
954,Hyderabad,Telangana,500096
955,Gurgaon,Haryana,122015
956,Noida,Uttar Pradesh,201307
957,Bengaluru,Karnataka,560053
958,Delhi,Delhi,110076
959,Bengaluru,Karnataka,560093
960,Hyderabad,Telangana,500007
961,Lucknow,Uttar Pradesh,226010
962,Bengaluru,Karnataka,560025
963,Thane,Maharashtra,401094
964,Hyderabad,Telangana,500025
965,Bengaluru,Karnataka,560043
966,Gurgaon,Haryana,122007
967,Chennai,Tamil Nadu,600084
968,Gurgaon,Haryana,122006
969,Hyderabad,Telangana,500004
970,Noida,Uttar Pradesh,201309
971,Mumbai,Maharashtra,400119
972,Gurgaon,Haryana,122016
973,Pune,Maharashtra,411009
974,Hyderabad,Telangana,500051
975,Bengaluru,Karnataka,560077
976,Bengaluru,Karnataka,560076
977,Delhi,Delhi,110003
978,Hyderabad,Telangana,500076
979,Delhi,Delhi,110064
980,Chennai,Tamil Nadu,600002
981,Lucknow,Uttar Pradesh,226014
982,Gurgaon,Haryana,122018
983,Chennai,Tamil Nadu,600045
984,Delhi,Delhi,110059
985,Gurgaon,Haryana,122017
986,Lucknow,Uttar Pradesh,226001
987,Hyderabad,Telangana,500020
988,Hyderabad,Telangana,500053
989,Bengaluru,Karnataka,560031
990,Pune,Maharashtra,411038
991,Hyderabad,Telangana,500093
992,Hyderabad,Telangana,500011
993,Gurgaon,Haryana,122010
994,Bengaluru,Karnataka,560059
995,Hyderabad,Telangana,500086
996,Chennai,Tamil Nadu,600068
997,Gurgaon,Haryana,122008
998,Hyderabad,Telangana,500088
999,Gurgaon,Haryana,122005
1000,Pune,Maharashtra,411021
1001,Gurgaon,Haryana,122015
1002,Delhi,Delhi,110061
1003,Thane,Maharashtra,400993
1004,Gurgaon,Haryana,122015
1005,Noida,Uttar Pradesh,201304
1006,Hyderabad,Telangana,500011
1007,Delhi,Delhi,110093
1008,Bengaluru,Karnataka,560033
1009,Hyderabad,Telangana,500055
1010,Chennai,Tamil Nadu,600045
1011,Lucknow,Uttar Pradesh,226014
1012,Delhi,Delhi,110022
1013,Lucknow,Uttar Pradesh,226012
1014,Hyderabad,Telangana,500005
1015,Delhi,Delhi,110054
1016,Hyderabad,Telangana,500049
1017,Hyderabad,Telangana,500045
1018,Mumbai,Maharashtra,400314
1019,Chennai,Tamil Nadu,600063
1020,Delhi,Delhi,110032
1021,Bengaluru,Karnataka,560065
1022,Chennai,Tamil Nadu,600023
1023,Hyderabad,Telangana,500028
1024,Delhi,Delhi,110061
1025,Hyderabad,Telangana,500031
1026,Hyderabad,Telangana,500020
1027,Gurgaon,Haryana,122009
1028,Gurgaon,Haryana,122010
1029,Bengaluru,Karnataka,560085
1030,Hyderabad,Telangana,500012
1031,Gurgaon,Haryana,122016
1032,Chennai,Tamil Nadu,600014
1033,Bengaluru,Karnataka,560009
1034,Hyderabad,Telangana,500063
1035,Bengaluru,Karnataka,560018
1036,Gurgaon,Haryana,122014
1037,Delhi,Delhi,110039
1038,Hyderabad,Telangana,500021
1039,Hyderabad,Telangana,500045
1040,Lucknow,Uttar Pradesh,226011
1041,Hyderabad,Telangana,500033
1042,Pune,Maharashtra,411041
1043,Gurgaon,Haryana,122017
1044,Bengaluru,Karnataka,560099
1045,Bengaluru,Karnataka,560015
1046,Chennai,Tamil Nadu,600047
1047,Chennai,Tamil Nadu,600004
1048,Hyderabad,Telangana,500035
1049,Hyderabad,Telangana,500073
1050,Chennai,Tamil Nadu,600050
1051,Chennai,Tamil Nadu,600001
1052,Noida,Uttar Pradesh,201308
1053,Hyderabad,Telangana,500082
1054,Hyderabad,Telangana,500094
1055,Gurgaon,Haryana,122015
1056,Delhi,Delhi,110002
1057,Hyderabad,Telangana,500058
1058,Hyderabad,Telangana,500024
1059,Noida,Uttar Pradesh,201305
1060,Bengaluru,Karnataka,560033
1061,Lucknow,Uttar Pradesh,226015
1062,Noida,Uttar Pradesh,201303
1063,Bengaluru,Karnataka,560091
1064,Delhi,Delhi,110041
1065,Chennai,Tamil Nadu,600052
1066,Noida,Uttar Pradesh,201306
1067,Delhi,Delhi,110040
1068,Chennai,Tamil Nadu,600075
1069,Delhi,Delhi,110094
1070,Bengaluru,Karnataka,560095
1071,Lucknow,Uttar Pradesh,226010
1072,Noida,Uttar Pradesh,201305
1073,Chennai,Tamil Nadu,600042
1074,Bengaluru,Karnataka,560066
1075,Delhi,Delhi,110023
1076,Chennai,Tamil Nadu,600002
1077,Delhi,Delhi,110034
1078,Chennai,Tamil Nadu,600078
1079,Gurgaon,Haryana,122017
1080,Hyderabad,Telangana,500052
1081,Bengaluru,Karnataka,560091
1082,Chennai,Tamil Nadu,600026
1083,Bengaluru,Karnataka,560008
1084,Delhi,Delhi,110073
1085,Delhi,Delhi,110022
1086,Noida,Uttar Pradesh,201308
1087,Thane,Maharashtra,400635
1088,Delhi,Delhi,110080
1089,Bengaluru,Karnataka,560022
1090,Gurgaon,Haryana,122009
1091,Noida,Uttar Pradesh,201308
1092,Delhi,Delhi,110098
1093,Delhi,Delhi,110034
1094,Mumbai,Maharashtra,400515
1095,Pune,Maharashtra,411001
1096,Thane,Maharashtra,400723
1097,Delhi,Delhi,110022
1098,Pune,Maharashtra,411022
1099,Gurgaon,Haryana,122006
1100,Bengaluru,Karnataka,560025
1101,Delhi,Delhi,110046
1102,Delhi,Delhi,110037
1103,Delhi,Delhi,110067
1104,Chennai,Tamil Nadu,600005
1105,Delhi,Delhi,110061
1106,Mumbai,Maharashtra,400526
1107,Hyderabad,Telangana,500094
1108,Chennai,Tamil Nadu,600086
1109,Gurgaon,Haryana,122008
1110,Gurgaon,Haryana,122006
1111,Pune,Maharashtra,411001
1112,Delhi,Delhi,110077
1113,Thane,Maharashtra,400894
1114,Bengaluru,Karnataka,560032
1115,Chennai,Tamil Nadu,600072
1116,Pune,Maharashtra,411038
1117,Noida,Uttar Pradesh,201308
1118,Bengaluru,Karnataka,560011
1119,Hyderabad,Telangana,500005
1120,Hyderabad,Telangana,500019
1121,Delhi,Delhi,110034
1122,Gurgaon,Haryana,122008
1123,Chennai,Tamil Nadu,600012
1124,Lucknow,Uttar Pradesh,226001
1125,Delhi,Delhi,110087
1126,Bengaluru,Karnataka,560056
1127,Bengaluru,Karnataka,560041
1128,Delhi,Delhi,110077
1129,Gurgaon,Haryana,122005
1130,Chennai,Tamil Nadu,600017
1131,Chennai,Tamil Nadu,600041
1132,Pune,Maharashtra,411018
1133,Bengaluru,Karnataka,560071
1134,Lucknow,Uttar Pradesh,226006
1135,Gurgaon,Haryana,122007
1136,Hyderabad,Telangana,500059
1137,Gurgaon,Haryana,122008
1138,Gurgaon,Haryana,122009
1139,Noida,Uttar Pradesh,201303
1140,Chennai,Tamil Nadu,600040
1141,Chennai,Tamil Nadu,600090
1142,Mumbai,Maharashtra,400960
1143,Delhi,Delhi,110099
1144,Mumbai,Maharashtra,400970
1145,Gurgaon,Haryana,122001
1146,Gurgaon,Haryana,122007
1147,Chennai,Tamil Nadu,600073
1148,Hyderabad,Telangana,500080
1149,Gurgaon,Haryana,122016
1150,Delhi,Delhi,110059
1151,Thane,Maharashtra,400839
1152,Hyderabad,Telangana,500006
1153,Noida,Uttar Pradesh,201307
1154,Bengaluru,Karnataka,560060
1155,Thane,Maharashtra,400790
1156,Gurgaon,Haryana,122003
1157,Chennai,Tamil Nadu,600089
1158,Lucknow,Uttar Pradesh,226015
1159,Hyderabad,Telangana,500040
1160,Bengaluru,Karnataka,560079
1161,Pune,Maharashtra,411040
1162,Delhi,Delhi,110067
1163,Chennai,Tamil Nadu,600007
1164,Gurgaon,Haryana,122014
1165,Gurgaon,Haryana,122014
1166,Bengaluru,Karnataka,560032
1167,Bengaluru,Karnataka,560047
1168,Gurgaon,Haryana,122007
1169,Thane,Maharashtra,401042
1170,Bengaluru,Karnataka,560037
1171,Lucknow,Uttar Pradesh,226008
1172,Delhi,Delhi,110005
1173,Chennai,Tamil Nadu,600022
1174,Gurgaon,Haryana,122006
1175,Bengaluru,Karnataka,560025
1176,Bengaluru,Karnataka,560001
1177,Lucknow,Uttar Pradesh,226004
1178,Gurgaon,Haryana,122011
1179,Chennai,Tamil Nadu,600080
1180,Gurgaon,Haryana,122012
1181,Mumbai,Maharashtra,400639
1182,Delhi,Delhi,110034
1183,Delhi,Delhi,110096
1184,Hyderabad,Telangana,500076
1185,Noida,Uttar Pradesh,201301
1186,Hyderabad,Telangana,500023
1187,Noida,Uttar Pradesh,201305
1188,Delhi,Delhi,110022
1189,Delhi,Delhi,110079
1190,Chennai,Tamil Nadu,600081
1191,Hyderabad,Telangana,500032
1192,Hyderabad,Telangana,500004
1193,Thane,Maharashtra,400974
1194,Gurgaon,Haryana,122007
1195,Bengaluru,Karnataka,560062
1196,Lucknow,Uttar Pradesh,226013
1197,Delhi,Delhi,110068
1198,Chennai,Tamil Nadu,600086
1199,Bengaluru,Karnataka,560007
1200,Lucknow,Uttar Pradesh,226014
1201,Chennai,Tamil Nadu,600049
1202,Chennai,Tamil Nadu,600063
1203,Noida,Uttar Pradesh,201305
1204,Hyderabad,Telangana,500012
1205,Noida,Uttar Pradesh,201307
1206,Hyderabad,Telangana,500072
1207,Delhi,Delhi,110045
1208,Gurgaon,Haryana,122018
1209,Delhi,Delhi,110039
1210,Pune,Maharashtra,411048
1211,Pune,Maharashtra,411031
1212,Gurgaon,Haryana,122016
1213,Pune,Maharashtra,411001
1214,Delhi,Delhi,110089
1215,Bengaluru,Karnataka,560026
1216,Hyderabad,Telangana,500060
1217,Hyderabad,Telangana,500047
1218,Delhi,Delhi,110010
1219,Mumbai,Maharashtra,400158
1220,Gurgaon,Haryana,122002
1221,Gurgaon,Haryana,122008
1222,Delhi,Delhi,110032
1223,Chennai,Tamil Nadu,600065
1224,Gurgaon,Haryana,122016
1225,Delhi,Delhi,110012
1226,Bengaluru,Karnataka,560085
1227,Gurgaon,Haryana,122005
1228,Chennai,Tamil Nadu,600005
1229,Thane,Maharashtra,401011
1230,Chennai,Tamil Nadu,600002
1231,Lucknow,Uttar Pradesh,226012
1232,Gurgaon,Haryana,122008
1233,Delhi,Delhi,110088
1234,Lucknow,Uttar Pradesh,226012
1235,Delhi,Delhi,110017
1236,Delhi,Delhi,110039
1237,Lucknow,Uttar Pradesh,226009
1238,Gurgaon,Haryana,122018
1239,Gurgaon,Haryana,122012
1240,Chennai,Tamil Nadu,600050
1241,Gurgaon,Haryana,122010
1242,Hyderabad,Telangana,500005
1243,Gurgaon,Haryana,122006
1244,Bengaluru,Karnataka,560003
1245,Pune,Maharashtra,411006
1246,Gurgaon,Haryana,122016
1247,Delhi,Delhi,110085
1248,Gurgaon,Haryana,122001
1249,Delhi,Delhi,110013
1250,Delhi,Delhi,110073
1251,Hyderabad,Telangana,500028
1252,Gurgaon,Haryana,122003
1253,Noida,Uttar Pradesh,201307
1254,Hyderabad,Telangana,500024
1255,Hyderabad,Telangana,500081
1256,Chennai,Tamil Nadu,600033
1257,Chennai,Tamil Nadu,600074
1258,Gurgaon,Haryana,122007
1259,Hyderabad,Telangana,500046
1260,Hyderabad,Telangana,500071
1261,Delhi,Delhi,110064
1262,Chennai,Tamil Nadu,600038
1263,Hyderabad,Telangana,500018
1264,Gurgaon,Haryana,122001
1265,Delhi,Delhi,110029
1266,Gurgaon,Haryana,122013
1267,Delhi,Delhi,110041
1268,Hyderabad,Telangana,500092
1269,Mumbai,Maharashtra,400753
1270,Chennai,Tamil Nadu,600006
1271,Bengaluru,Karnataka,560084
1272,Mumbai,Maharashtra,400839
1273,Delhi,Delhi,110011
1274,Chennai,Tamil Nadu,600070
1275,Bengaluru,Karnataka,560002
1276,Gurgaon,Haryana,122008
1277,Noida,Uttar Pradesh,201309
1278,Noida,Uttar Pradesh,201302
1279,Gurgaon,Haryana,122002
1280,Noida,Uttar Pradesh,201305
1281,Chennai,Tamil Nadu,600078
1282,Chennai,Tamil Nadu,600046
1283,Bengaluru,Karnataka,560096
1284,Noida,Uttar Pradesh,201301
1285,Delhi,Delhi,110075
1286,Bengaluru,Karnataka,560087
1287,Bengaluru,Karnataka,560015
1288,Chennai,Tamil Nadu,600002
1289,Lucknow,Uttar Pradesh,226001
1290,Gurgaon,Haryana,122011
1291,Bengaluru,Karnataka,560081
1292,Hyderabad,Telangana,500055
1293,Chennai,Tamil Nadu,600011
1294,Gurgaon,Haryana,122013
1295,Hyderabad,Telangana,500010
1296,Hyderabad,Telangana,500088
1297,Hyderabad,Telangana,500090
1298,Lucknow,Uttar Pradesh,226001
1299,Delhi,Delhi,110018
1300,Chennai,Tamil Nadu,600078
1301,Delhi,Delhi,110046
1302,Hyderabad,Telangana,500082
1303,Hyderabad,Telangana,500057
1304,Hyderabad,Telangana,500041
1305,Thane,Maharashtra,400656
1306,Noida,Uttar Pradesh,201302
1307,Chennai,Tamil Nadu,600047
1308,Noida,Uttar Pradesh,201304
1309,Delhi,Delhi,110044
1310,Chennai,Tamil Nadu,600020
1311,Gurgaon,Haryana,122001
1312,Gurgaon,Haryana,122011
1313,Hyderabad,Telangana,500048
1314,Bengaluru,Karnataka,560088
1315,Chennai,Tamil Nadu,600070
1316,Thane,Maharashtra,401037
1317,Thane,Maharashtra,400797
1318,Pune,Maharashtra,411034
1319,Hyderabad,Telangana,500095
1320,Bengaluru,Karnataka,560016
1321,Chennai,Tamil Nadu,600087
1322,Chennai,Tamil Nadu,600094
1323,Chennai,Tamil Nadu,600024
1324,Noida,Uttar Pradesh,201303
1325,Noida,Uttar Pradesh,201306
1326,Hyderabad,Telangana,500009
1327,Hyderabad,Telangana,500009
1328,Chennai,Tamil Nadu,600004
1329,Chennai,Tamil Nadu,600075
1330,Delhi,Delhi,110045
1331,Chennai,Tamil Nadu,600061
1332,Chennai,Tamil Nadu,600015
1333,Thane,Maharashtra,400971
1334,Hyderabad,Telangana,500049
1335,Lucknow,Uttar Pradesh,226008
1336,Mumbai,Maharashtra,400204
1337,Thane,Maharashtra,400903
1338,Bengaluru,Karnataka,560095
1339,Lucknow,Uttar Pradesh,226008
1340,Lucknow,Uttar Pradesh,226009
1341,Hyderabad,Telangana,500049
1342,Lucknow,Uttar Pradesh,226009
1343,Gurgaon,Haryana,122005
1344,Hyderabad,Telangana,500063
1345,Delhi,Delhi,110075
1346,Bengaluru,Karnataka,560009
1347,Delhi,Delhi,110035
1348,Gurgaon,Haryana,122015
1349,Gurgaon,Haryana,122016
1350,Noida,Uttar Pradesh,201304
1351,Hyderabad,Telangana,500040
1352,Lucknow,Uttar Pradesh,226015
1353,Thane,Maharashtra,400620
1354,Delhi,Delhi,110020
1355,Noida,Uttar Pradesh,201302
1356,Bengaluru,Karnataka,560097
1357,Thane,Maharashtra,401026
1358,Chennai,Tamil Nadu,600076
1359,Lucknow,Uttar Pradesh,226013
1360,Bengaluru,Karnataka,560032
1361,Chennai,Tamil Nadu,600009
1362,Pune,Maharashtra,411031
1363,Noida,Uttar Pradesh,201306
1364,Hyderabad,Telangana,500048
1365,Hyderabad,Telangana,500060
1366,Pune,Maharashtra,411032
1367,Chennai,Tamil Nadu,600015
1368,Gurgaon,Haryana,122001
1369,Lucknow,Uttar Pradesh,226016
1370,Hyderabad,Telangana,500025
1371,Pune,Maharashtra,411013
1372,Lucknow,Uttar Pradesh,226008
1373,Chennai,Tamil Nadu,600037
1374,Bengaluru,Karnataka,560069
1375,Chennai,Tamil Nadu,600089
1376,Delhi,Delhi,110065
1377,Chennai,Tamil Nadu,600029
1378,Gurgaon,Haryana,122009
1379,Hyderabad,Telangana,500084
1380,Delhi,Delhi,110031
1381,Delhi,Delhi,110017
1382,Hyderabad,Telangana,500023
1383,Lucknow,Uttar Pradesh,226003
1384,Lucknow,Uttar Pradesh,226015
1385,Lucknow,Uttar Pradesh,226010
1386,Bengaluru,Karnataka,560010
1387,Chennai,Tamil Nadu,600040
1388,Gurgaon,Haryana,122011
1389,Lucknow,Uttar Pradesh,226012
1390,Delhi,Delhi,110064
1391,Chennai,Tamil Nadu,600030
1392,Delhi,Delhi,110000
1393,Gurgaon,Haryana,122009
1394,Mumbai,Maharashtra,400718
1395,Noida,Uttar Pradesh,201301
1396,Gurgaon,Haryana,122011
1397,Bengaluru,Karnataka,560005
1398,Gurgaon,Haryana,122011
1399,Thane,Maharashtra,401089
1400,Bengaluru,Karnataka,560066
1401,Gurgaon,Haryana,122011
1402,Noida,Uttar Pradesh,201301
1403,Thane,Maharashtra,400858
1404,Lucknow,Uttar Pradesh,226008
1405,Chennai,Tamil Nadu,600076
1406,Lucknow,Uttar Pradesh,226002
1407,Bengaluru,Karnataka,560083
1408,Pune,Maharashtra,411020
1409,Noida,Uttar Pradesh,201308
1410,Delhi,Delhi,110021
1411,Gurgaon,Haryana,122017
1412,Bengaluru,Karnataka,560094
1413,Thane,Maharashtra,400921
1414,Hyderabad,Telangana,500050
1415,Chennai,Tamil Nadu,600008
1416,Gurgaon,Haryana,122008
1417,Hyderabad,Telangana,500078
1418,Thane,Maharashtra,401029
1419,Delhi,Delhi,110086
1420,Bengaluru,Karnataka,560023
1421,Chennai,Tamil Nadu,600100
1422,Hyderabad,Telangana,500019
1423,Mumbai,Maharashtra,400619
1424,Lucknow,Uttar Pradesh,226012
1425,Hyderabad,Telangana,500015
1426,Chennai,Tamil Nadu,600053
1427,Thane,Maharashtra,400996
1428,Gurgaon,Haryana,122003
1429,Bengaluru,Karnataka,560097
1430,Bengaluru,Karnataka,560059
1431,Chennai,Tamil Nadu,600015
1432,Chennai,Tamil Nadu,600017
1433,Chennai,Tamil Nadu,600078
1434,Bengaluru,Karnataka,560074
1435,Hyderabad,Telangana,500024
1436,Chennai,Tamil Nadu,600098
1437,Thane,Maharashtra,400818
1438,Chennai,Tamil Nadu,600012
1439,Mumbai,Maharashtra,400932
1440,Bengaluru,Karnataka,560081
1441,Lucknow,Uttar Pradesh,226005
1442,Hyderabad,Telangana,500075
1443,Delhi,Delhi,110096
1444,Bengaluru,Karnataka,560064
1445,Chennai,Tamil Nadu,600064
1446,Hyderabad,Telangana,500064
1447,Delhi,Delhi,110099
1448,Mumbai,Maharashtra,400621
1449,Noida,Uttar Pradesh,201301
1450,Pune,Maharashtra,411042
1451,Mumbai,Maharashtra,400563
1452,Pune,Maharashtra,411002
1453,Delhi,Delhi,110056
1454,Hyderabad,Telangana,500025
1455,Delhi,Delhi,110087
1456,Gurgaon,Haryana,122016
1457,Bengaluru,Karnataka,560012
1458,Mumbai,Maharashtra,400142
1459,Noida,Uttar Pradesh,201304
1460,Hyderabad,Telangana,500051
1461,Hyderabad,Telangana,500082
1462,Bengaluru,Karnataka,560004
